[{"OBJECT_NAME":"PRISMA","OBJECT_ID":"2019-015A","EPOCH":"2026-03-09T22:24:54.380736","MEAN_MOTION":14.83635858,"ECCENTRICITY":0.00014734,"INCLINATION":97.871,"RA_OF_ASC_NODE":145.1563,"ARG_OF_PERICENTER":87.5079,"MEAN_ANOMALY":272.6304,"EPHEMERIS_TYPE":0,"CLASSIFICATION_TYPE":"U","NORAD_CAT_ID":44072,"ELEMENT_SET_NO":999,"REV_AT_EPOCH":37733,"BSTAR":9.2638496e-5,"MEAN_MOTION_DOT":7.12e-6,"MEAN_MOTION_DDOT":0},{"OBJECT_NAME":"SVOM","OBJECT_ID":"2024-116B","EPOCH":"2026-03-09T23:40:42.296160","MEAN_MOTION":14.83280449,"ECCENTRICITY":0.00053838,"INCLINATION":28.9973,"RA_OF_ASC_NODE":24.3307,"ARG_OF_PERICENTER":105.8209,"MEAN_ANOMALY":254.2978,"EPHEMERIS_TYPE":0,"CLASSIFICATION_TYPE":"U","NORAD_CAT_ID":60089,"ELEMENT_SET_NO":999,"REV_AT_EPOCH":9285,"BSTAR":0.00025701068,"MEAN_MOTION_DOT":2.275e-5,"MEAN_MOTION_DDOT":0}]
